$$SOE
2461302.500000000, A.D. 2026-Sep-19 00:00:00.0000, 3.074096531068220E+08, -3.968927932744042E+08, 3.116062281823069E+06,
2461309.500000000, A.D. 2026-Sep-26 00:00:00.0000, 3.152471944697485E+08, -3.916323353634644E+08, 2.738728755137980E+06,
2461316.500000000, A.D. 2026-Oct-03 00:00:00.0000, 3.229643310323949E+08, -3.862223027063183E+08, 2.360348758734822E+06,
2461323.500000000, A.D. 2026-Oct-10 00:00:00.0000, 3.305586360195140E+08, -3.806653880584804E+08, 1.981070690665007E+06,
2461330.500000000, A.D. 2026-Oct-17 00:00:00.0000, 3.380277395500364E+08, -3.749643052688823E+08, 1.601041953494996E+06,
2461337.500000000, A.D. 2026-Oct-24 00:00:00.0000, 3.453693279362288E+08, -3.691217884246802E+08, 1.220408943961710E+06,
2461344.500000000, A.D. 2026-Oct-31 00:00:00.0000, 3.525811430761418E+08, -3.631405912034689E+08, 8.393170217690319E+05,
2461351.500000000, A.D. 2026-Nov-07 00:00:00.0000, 3.596609822794035E+08, -3.570234863567626E+08, 4.579104325254112E+05,
2461358.500000000, A.D. 2026-Nov-14 00:00:00.0000, 3.666066987288954E+08, -3.507732644358311E+08, 7.633223909614980E+04,
2461365.500000000, A.D. 2026-Nov-21 00:00:00.0000, 3.734162007680371E+08, -3.443927310774153E+08, -3.052755164843351E+05,
2461372.500000000, A.D. 2026-Nov-28 00:00:00.0000, 3.800874490158700E+08, -3.378847058563096E+08, -6.867715746649355E+05,
2461379.500000000, A.D. 2026-Dec-05 00:00:00.0000, 3.866184549295508E+08, -3.312520233588509E+08, -1.068015529108003E+06,
2461386.500000000, A.D. 2026-Dec-12 00:00:00.0000, 3.930072809802811E+08, -3.244975333643830E+08, -1.448867967182428E+06,
2461393.500000000, A.D. 2026-Dec-19 00:00:00.0000, 3.992520405567252E+08, -3.176241001271461E+08, -1.829190506361708E+06,
2461400.500000000, A.D. 2026-Dec-26 00:00:00.0000, 4.053508974544305E+08, -3.106346016256315E+08, -2.208845784218594E+06,
2461407.500000000, A.D. 2027-Jan-02 00:00:00.0000, 4.113020652275924E+08, -3.035319289692882E+08, -2.587697442792892E+06,
2461414.500000000, A.D. 2027-Jan-09 00:00:00.0000, 4.171038065202137E+08, -2.963189859414616E+08, -2.965610116335049E+06,
2461421.500000000, A.D. 2027-Jan-16 00:00:00.0000, 4.227544324115502E+08, -2.889986886688960E+08, -3.342449424923241E+06,
2461428.500000000, A.D. 2027-Jan-23 00:00:00.0000, 4.282523018207662E+08, -2.815739654565459E+08, -3.718081981462836E+06,
2461435.500000000, A.D. 2027-Jan-30 00:00:00.0000, 4.335958211570309E+08, -2.740477568342479E+08, -4.092375433324382E+06,
2461442.500000000, A.D. 2027-Feb-06 00:00:00.0000, 4.387834446386031E+08, -2.664230154736433E+08, -4.465198549944416E+06,
2461449.500000000, A.D. 2027-Feb-13 00:00:00.0000, 4.438136748204072E+08, -2.587027047546067E+08, -4.836421214594796E+06,
2461456.500000000, A.D. 2027-Feb-20 00:00:00.0000, 4.486850609662002E+08, -2.508897967721649E+08, -5.205914168294266E+06,
2461463.500000000, A.D. 2027-Feb-27 00:00:00.0000, 4.533961966600362E+08, -2.429872729970747E+08, -5.573548896821722E+06,
2461470.500000000, A.D. 2027-Mar-06 00:00:00.0000, 4.579457196740959E+08, -2.349981256657320E+08, -5.939197780847073E+06,
2461477.500000000, A.D. 2027-Mar-13 00:00:00.0000, 4.623323124929973E+08, -2.269253578484709E+08, -6.302734195144683E+06,
2461484.500000000, A.D. 2027-Mar-20 00:00:00.0000, 4.665547023659145E+08, -2.187719830299960E+08, -6.664032521695271E+06,
2461491.500000000, A.D. 2027-Mar-27 00:00:00.0000, 4.706116610891399E+08, -2.105410247500532E+08, -7.022968140229151E+06,
2461498.500000000, A.D. 2027-Apr-03 00:00:00.0000, 4.745020047225906E+08, -2.022355163512258E+08, -7.379417418855935E+06,
2461505.500000000, A.D. 2027-Apr-10 00:00:00.0000, 4.782245933021218E+08, -1.938585008100482E+08, -7.733257708612055E+06,
2461512.500000000, A.D. 2027-Apr-17 00:00:00.0000, 4.817783305702253E+08, -1.854130306652136E+08, -8.084367345196538E+06,
2461519.500000000, A.D. 2027-Apr-24 00:00:00.0000, 4.851621638043493E+08, -1.769021681046664E+08, -8.432625670321696E+06,
2461526.500000000, A.D. 2027-May-01 00:00:00.0000, 4.883750840416936E+08, -1.683289851831014E+08, -8.777913097982496E+06,
2461533.500000000, A.D. 2027-May-08 00:00:00.0000, 4.914161270069278E+08, -1.596965634200164E+08, -9.120111192725599E+06,
2461540.500000000, A.D. 2027-May-15 00:00:00.0000, 4.942843732461243E+08, -1.510079918233013E+08, -9.459102544664726E+06,
2461547.500000000, A.D. 2027-May-22 00:00:00.0000, 4.969789459035852E+08, -1.422663659291803E+08, -9.794770509589016E+06,
2461554.500000000, A.D. 2027-May-29 00:00:00.0000, 4.994990094969720E+08, -1.334747893255073E+08, -1.012699924199930E+07,
2461561.500000000, A.D. 2027-Jun-05 00:00:00.0000, 5.018437705757262E+08, -1.246363745246788E+08, -1.045567384624059E+07,
2461568.500000000, A.D. 2027-Jun-12 00:00:00.0000, 5.040124782567514E+08, -1.157542427532127E+08, -1.078068042617998E+07,
2461575.500000000, A.D. 2027-Jun-19 00:00:00.0000, 5.060044243077103E+08, -1.068315235926919E+08, -1.110190607932294E+07,
2461582.500000000, A.D. 2027-Jun-26 00:00:00.0000, 5.078189430580423E+08, -9.787135473321545E+07, -1.141923888218822E+07,
2461589.500000000, A.D. 2027-Jul-03 00:00:00.0000, 5.094554112700325E+08, -8.887688183066727E+07, -1.173256787820075E+07,
2461596.500000000, A.D. 2027-Jul-10 00:00:00.0000, 5.109132480068070E+08, -7.985125845845145E+07, -1.204178307057189E+07,
2461603.500000000, A.D. 2027-Jul-17 00:00:00.0000, 5.121919145336222E+08, -7.079764619183500E+07, -1.234677542646936E+07,
2461610.500000000, A.D. 2027-Jul-24 00:00:00.0000, 5.132909144087296E+08, -6.171921488703312E+07, -1.264743691177963E+07,
2461617.500000000, A.D. 2027-Jul-31 00:00:00.0000, 5.142097941745836E+08, -5.261914291864228E+07, -1.294366057480226E+07,
2461624.500000000, A.D. 2027-Aug-07 00:00:00.0000, 5.149481444481894E+08, -4.350061622205290E+07, -1.323534056617365E+07,
2461631.500000000, A.D. 2027-Aug-14 00:00:00.0000, 5.155055991107242E+08, -3.436682639267109E+07, -1.352237190449874E+07,
2461638.500000000, A.D. 2027-Aug-21 00:00:00.0000, 5.158818332159879E+08, -2.522097120610732E+07, -1.380465031934961E+07,
2461645.500000000, A.D. 2027-Aug-28 00:00:00.0000, 5.160765630480099E+08, -1.606625635590268E+07, -1.408207238813584E+07,
2461652.500000000, A.D. 2027-Sep-04 00:00:00.0000, 5.160895471459576E+08, -6.905895905318685E+06, -1.435453565416999E+07,
2461659.500000000, A.D. 2027-Sep-11 00:00:00.0000, 5.159205869011893E+08, 2.256887886537714E+06, -1.462193865219135E+07,
2461666.500000000, A.D. 2027-Sep-18 00:00:00.0000, 5.155695268597534E+08, 1.141886471493645E+07, -1.488418090694565E+07,
2461673.500000000, A.D. 2027-Sep-25 00:00:00.0000, 5.150362549590589E+08, 2.057679627949710E+07, -1.514116293242217E+07,
2461680.500000000, A.D. 2027-Oct-02 00:00:00.0000, 5.143207027735386E+08, 2.972743626278883E+07, -1.539278623664305E+07,
2461687.500000000, A.D. 2027-Oct-09 00:00:00.0000, 5.134228457916944E+08, 3.886753023462085E+07, -1.563895333468506E+07,
2461694.500000000, A.D. 2027-Oct-16 00:00:00.0000, 5.123427037879157E+08, 4.799381542878445E+07, -1.587956778045769E+07,
2461701.500000000, A.D. 2027-Oct-23 00:00:00.0000, 5.110803415492576E+08, 5.710302038796523E+07, -1.611453424179210E+07,
2461708.500000000, A.D. 2027-Oct-30 00:00:00.0000, 5.096358703316116E+08, 6.619186508847779E+07, -1.634375860355354E+07,
2461715.500000000, A.D. 2027-Nov-06 00:00:00.0000, 5.080094488815904E+08, 7.525706267510724E+07, -1.656714789995963E+07,
2461722.500000000, A.D. 2027-Nov-13 00:00:00.0000, 5.062012820404961E+08, 8.429532073199449E+07, -1.678461006372238E+07,
2461729.500000000, A.D. 2027-Nov-20 00:00:00.0000, 5.042116198339322E+08, 9.330333990410173E+07, -1.699605393695901E+07,
2461736.500000000, A.D. 2027-Nov-27 00:00:00.0000, 5.020407586640223E+08, 1.022778128341773E+08, -1.720138945005101E+07,
2461743.500000000, A.D. 2027-Dec-04 00:00:00.0000, 4.996890425802369E+08, 1.112154243305533E+08, -1.740052770813755E+07,
2461750.500000000, A.D. 2027-Dec-11 00:00:00.0000, 4.971568640785900E+08, 1.201128518032219E+08, -1.759338101348295E+07,
2461757.500000000, A.D. 2027-Dec-18 00:00:00.0000, 4.944446647045758E+08, 1.289667656302814E+08, -1.777986287660972E+07,
2461764.500000000, A.D. 2027-Dec-25 00:00:00.0000, 4.915529356120440E+08, 1.377738294536146E+08, -1.795988803027280E+07,
2461771.500000000, A.D. 2028-Jan-01 00:00:00.0000, 4.884822181193537E+08, 1.465307004192395E+08, -1.813337244882329E+07,
$$EOE